[{"OBJECT_NAME":"HULIANWANG DIGUI-113","OBJECT_ID":"2025-285J","EPOCH":"2026-03-03T02:33:07.070112","MEAN_MOTION":13.29331555,"ECCENTRICITY":3.6e-6,"INCLINATION":50.0096,"RA_OF_ASC_NODE":166.1246,"ARG_OF_PERICENTER":339.2549,"MEAN_ANOMALY":20.8322,"EPHEMERIS_TYPE":0,"CLASSIFICATION_TYPE":"U","NORAD_CAT_ID":66923,"ELEMENT_SET_NO":999,"REV_AT_EPOCH":1195,"BSTAR":-0.00017454,"MEAN_MOTION_DOT":-2.05e-6,"MEAN_MOTION_DDOT":0},{"OBJECT_NAME":"HULIANWANG DIGUI-114","OBJECT_ID":"2025-287A","EPOCH":"2026-03-03T03:33:00.727776","MEAN_MOTION":13.24415536,"ECCENTRICITY":0.0001978,"INCLINATION":86.4978,"RA_OF_ASC_NODE":318.2191,"ARG_OF_PERICENTER":81.4747,"MEAN_ANOMALY":278.6611,"EPHEMERIS_TYPE":0,"CLASSIFICATION_TYPE":"U","NORAD_CAT_ID":66953,"ELEMENT_SET_NO":999,"REV_AT_EPOCH":1130,"BSTAR":0.00012995,"MEAN_MOTION_DOT":7.0e-7,"MEAN_MOTION_DDOT":0},{"OBJECT_NAME":"HULIANWANG DIGUI-115","OBJECT_ID":"2025-287B","EPOCH":"2026-03-03T03:22:06.518208","MEAN_MOTION":13.24415596,"ECCENTRICITY":0.0002061,"INCLINATION":86.4994,"RA_OF_ASC_NODE":318.2304,"ARG_OF_PERICENTER":81.0081,"MEAN_ANOMALY":279.1286,"EPHEMERIS_TYPE":0,"CLASSIFICATION_TYPE":"U","NORAD_CAT_ID":66954,"ELEMENT_SET_NO":999,"REV_AT_EPOCH":1130,"BSTAR":0.00014783,"MEAN_MOTION_DOT":7.8e-7,"MEAN_MOTION_DDOT":0},{"OBJECT_NAME":"HULIANWANG DIGUI-116","OBJECT_ID":"2025-287C","EPOCH":"2026-03-03T03:11:14.498016","MEAN_MOTION":13.24415654,"ECCENTRICITY":0.0002051,"INCLINATION":86.4934,"RA_OF_ASC_NODE":318.1707,"ARG_OF_PERICENTER":80.9822,"MEAN_ANOMALY":279.1544,"EPHEMERIS_TYPE":0,"CLASSIFICATION_TYPE":"U","NORAD_CAT_ID":66955,"ELEMENT_SET_NO":999,"REV_AT_EPOCH":1130,"BSTAR":0.000158,"MEAN_MOTION_DOT":8.2e-7,"MEAN_MOTION_DDOT":0},{"OBJECT_NAME":"HULIANWANG DIGUI-117","OBJECT_ID":"2025-287D","EPOCH":"2026-03-03T03:00:24.953184","MEAN_MOTION":13.24413743,"ECCENTRICITY":0.0001411,"INCLINATION":86.4994,"RA_OF_ASC_NODE":318.2237,"ARG_OF_PERICENTER":23.5815,"MEAN_ANOMALY":336.5384,"EPHEMERIS_TYPE":0,"CLASSIFICATION_TYPE":"U","NORAD_CAT_ID":66956,"ELEMENT_SET_NO":999,"REV_AT_EPOCH":1130,"BSTAR":0.00017139,"MEAN_MOTION_DOT":8.8e-7,"MEAN_MOTION_DDOT":0},{"OBJECT_NAME":"HULIANWANG DIGUI-118","OBJECT_ID":"2025-287E","EPOCH":"2026-03-03T02:49:30.992448","MEAN_MOTION":13.24415022,"ECCENTRICITY":0.0002043,"INCLINATION":86.497,"RA_OF_ASC_NODE":318.1981,"ARG_OF_PERICENTER":81.1087,"MEAN_ANOMALY":279.0278,"EPHEMERIS_TYPE":0,"CLASSIFICATION_TYPE":"U","NORAD_CAT_ID":66957,"ELEMENT_SET_NO":999,"REV_AT_EPOCH":1130,"BSTAR":0.00020864,"MEAN_MOTION_DOT":1.04e-6,"MEAN_MOTION_DDOT":0},{"OBJECT_NAME":"HULIANWANG DIGUI-119","OBJECT_ID":"2025-295A","EPOCH":"2026-03-02T18:39:00.522432","MEAN_MOTION":13.51600384,"ECCENTRICITY":1.501e-5,"INCLINATION":50.0036,"RA_OF_ASC_NODE":48.6911,"ARG_OF_PERICENTER":355.1515,"MEAN_ANOMALY":4.9366,"EPHEMERIS_TYPE":0,"CLASSIFICATION_TYPE":"U","NORAD_CAT_ID":67059,"ELEMENT_SET_NO":999,"REV_AT_EPOCH":1132,"BSTAR":0.00010827601,"MEAN_MOTION_DOT":-6.1e-7,"MEAN_MOTION_DDOT":0},{"OBJECT_NAME":"HULIANWANG DIGUI-120","OBJECT_ID":"2025-295B","EPOCH":"2026-03-03T01:26:36.894336","MEAN_MOTION":13.51383885,"ECCENTRICITY":0.000111,"INCLINATION":50.0047,"RA_OF_ASC_NODE":47.5238,"ARG_OF_PERICENTER":314.3064,"MEAN_ANOMALY":45.7727,"EPHEMERIS_TYPE":0,"CLASSIFICATION_TYPE":"U","NORAD_CAT_ID":67060,"ELEMENT_SET_NO":999,"REV_AT_EPOCH":1136,"BSTAR":0.00010052,"MEAN_MOTION_DOT":-6.6e-7,"MEAN_MOTION_DDOT":0},{"OBJECT_NAME":"HULIANWANG DIGUI-121","OBJECT_ID":"2025-295C","EPOCH":"2026-03-02T20:16:45.815808","MEAN_MOTION":13.51739032,"ECCENTRICITY":7.901e-5,"INCLINATION":50.0011,"RA_OF_ASC_NODE":48.3568,"ARG_OF_PERICENTER":312.6066,"MEAN_ANOMALY":47.4749,"EPHEMERIS_TYPE":0,"CLASSIFICATION_TYPE":"U","NORAD_CAT_ID":67061,"ELEMENT_SET_NO":999,"REV_AT_EPOCH":1133,"BSTAR":0.00010856682,"MEAN_MOTION_DOT":-6.1e-7,"MEAN_MOTION_DDOT":0},{"OBJECT_NAME":"HULIANWANG DIGUI-122","OBJECT_ID":"2025-295D","EPOCH":"2026-03-02T19:57:35.698752","MEAN_MOTION":13.52161141,"ECCENTRICITY":4.905e-5,"INCLINATION":50.004,"RA_OF_ASC_NODE":48.3122,"ARG_OF_PERICENTER":287.0373,"MEAN_ANOMALY":73.0455,"EPHEMERIS_TYPE":0,"CLASSIFICATION_TYPE":"U","NORAD_CAT_ID":67062,"ELEMENT_SET_NO":999,"REV_AT_EPOCH":1133,"BSTAR":0.00010894892,"MEAN_MOTION_DOT":-6.0e-7,"MEAN_MOTION_DDOT":0},{"OBJECT_NAME":"HULIANWANG DIGUI-123","OBJECT_ID":"2025-295E","EPOCH":"2026-03-03T01:06:40.599072","MEAN_MOTION":13.51648832,"ECCENTRICITY":0.0001534,"INCLINATION":50.0083,"RA_OF_ASC_NODE":47.4662,"ARG_OF_PERICENTER":339.6386,"MEAN_ANOMALY":20.4434,"EPHEMERIS_TYPE":0,"CLASSIFICATION_TYPE":"U","NORAD_CAT_ID":67063,"ELEMENT_SET_NO":999,"REV_AT_EPOCH":1136,"BSTAR":0.00012828,"MEAN_MOTION_DOT":-4.8e-7,"MEAN_MOTION_DDOT":0},{"OBJECT_NAME":"HULIANWANG DIGUI-124","OBJECT_ID":"2025-295F","EPOCH":"2026-03-03T00:58:18.354144","MEAN_MOTION":13.51837566,"ECCENTRICITY":7.99e-5,"INCLINATION":50.0003,"RA_OF_ASC_NODE":47.381,"ARG_OF_PERICENTER":325.6702,"MEAN_ANOMALY":34.4128,"EPHEMERIS_TYPE":0,"CLASSIFICATION_TYPE":"U","NORAD_CAT_ID":67064,"ELEMENT_SET_NO":999,"REV_AT_EPOCH":1136,"BSTAR":0.00010184,"MEAN_MOTION_DOT":-6.5e-7,"MEAN_MOTION_DDOT":0},{"OBJECT_NAME":"HULIANWANG DIGUI-125","OBJECT_ID":"2025-295G","EPOCH":"2026-03-03T00:48:52.608672","MEAN_MOTION":13.51894465,"ECCENTRICITY":0.0001162,"INCLINATION":49.9994,"RA_OF_ASC_NODE":47.3388,"ARG_OF_PERICENTER":349.2152,"MEAN_ANOMALY":10.8705,"EPHEMERIS_TYPE":0,"CLASSIFICATION_TYPE":"U","NORAD_CAT_ID":67065,"ELEMENT_SET_NO":999,"REV_AT_EPOCH":1136,"BSTAR":0.00010069,"MEAN_MOTION_DOT":-6.6e-7,"MEAN_MOTION_DDOT":0},{"OBJECT_NAME":"HULIANWANG DIGUI-126","OBJECT_ID":"2025-295H","EPOCH":"2026-03-03T02:24:53.250048","MEAN_MOTION":13.51762311,"ECCENTRICITY":9.26e-5,"INCLINATION":49.9965,"RA_OF_ASC_NODE":47.0294,"ARG_OF_PERICENTER":93.487,"MEAN_ANOMALY":266.6118,"EPHEMERIS_TYPE":0,"CLASSIFICATION_TYPE":"U","NORAD_CAT_ID":67066,"ELEMENT_SET_NO":999,"REV_AT_EPOCH":1137,"BSTAR":7.1323e-5,"MEAN_MOTION_DOT":-8.5e-7,"MEAN_MOTION_DDOT":0},{"OBJECT_NAME":"HULIANWANG DIGUI-127","OBJECT_ID":"2025-295J","EPOCH":"2026-03-03T02:09:41.277312","MEAN_MOTION":13.51667529,"ECCENTRICITY":2.18e-5,"INCLINATION":50.0052,"RA_OF_ASC_NODE":46.9878,"ARG_OF_PERICENTER":340.3613,"MEAN_ANOMALY":19.7261,"EPHEMERIS_TYPE":0,"CLASSIFICATION_TYPE":"U","NORAD_CAT_ID":67067,"ELEMENT_SET_NO":999,"REV_AT_EPOCH":1137,"BSTAR":-0.0002763,"MEAN_MOTION_DOT":-3.13e-6,"MEAN_MOTION_DDOT":0},{"OBJECT_NAME":"HULIANWANG DIGUI-128","OBJECT_ID":"2025-311A","EPOCH":"2026-03-03T02:56:52.492992","MEAN_MOTION":13.3647454,"ECCENTRICITY":6.08e-5,"INCLINATION":50.0073,"RA_OF_ASC_NODE":136.0394,"ARG_OF_PERICENTER":7.5983,"MEAN_ANOMALY":352.4902,"EPHEMERIS_TYPE":0,"CLASSIFICATION_TYPE":"U","NORAD_CAT_ID":67236,"ELEMENT_SET_NO":999,"REV_AT_EPOCH":923,"BSTAR":0.00012447,"MEAN_MOTION_DOT":-6.2e-7,"MEAN_MOTION_DDOT":0}]
